TIANMU-1 20             
1 58661U 23208B   26168.91223687  .00006431  00000+0  20563-3 0  9994
2 58661  97.4452 285.8515 0005965 330.8819  29.2089 15.32773638137534
TIANMU-1 21             
1 58662U 23208C   26168.89948880  .00007785  00000+0  23095-3 0  9997
2 58662  97.4513 288.5223 0005920 320.7968  39.2846 15.35087755137671
TIANMU-1 22             
1 58663U 23208D   26168.92236310  .00006231  00000+0  21021-3 0  9992
2 58663  97.4506 285.1610 0003113   1.2284 358.8964 15.31067020137446
STARLINK-31113          
1 58668U 23211B   26167.91707206  .00001060  00000+0  48042-4 0  9994
2 58668  42.9984 244.5965 0001229 271.7191  88.3520 15.27576473137642
STARLINK-31128          
1 58669U 23211C   26167.93377326  .00000814  00000+0  39095-4 0  9997
2 58669  42.9995 244.7217 0000939 272.0422  88.0322 15.27582465137640
STARLINK-31083          
1 58670U 23211D   26167.91321090  .00001875  00000+0  77641-4 0  9991
2 58670  42.9998 244.5682 0001184 276.8861  83.1856 15.27583271137645
STARLINK-30828          
1 58671U 23211E   26167.94403706 -.00001798  00000+0 -55771-4 0  9996
2 58671  43.0043 244.7995 0002182 271.9592  88.1009 15.27594621137640
STARLINK-31104          
1 58672U 23211F   26167.87857137  .00060259  00000+0  95899-3 0  9999
2 58672  42.9903 231.2279 0020928  43.7405 316.5110 15.52195318139074
STARLINK-31131          
1 58673U 23211G   26167.46080313  .00000630  00000+0  32442-4 0  9992
2 58673  43.0046 236.6786 0002286 279.0875  80.9717 15.27579318138970
STARLINK-31124          
1 58674U 23211H   26168.64018129 -.00000344  00000+0 -29933-5 0  9996
2 58674  43.0013 240.5631 0001064 282.4889  77.5844 15.27575158137750
STARLINK-31126          
1 58675U 23211J   26167.90552077 -.00001117  00000+0 -31114-4 0  9992
2 58675  43.0065 244.5019 0000329 139.5020 220.5857 15.27561485137644
STARLINK-31066          
1 58676U 23211K   26167.89904718  .00001784  00000+0  74336-4 0  9995
2 58676  43.0039  30.7775 0001291 256.8704 103.2004 15.27588448137202
STARLINK-31058          
1 58677U 23211L   26167.92349063  .00000915  00000+0  42758-4 0  9994
2 58677  43.0029 244.6462 0001545 273.5942  86.4733 15.27582387137648
STARLINK-31125          
1 58678U 23211M   26166.50813228 -.00000225  00000+0  13667-5 0  9990
2 58678  43.0022 252.9420 0001827 273.0360  87.0282 15.27572595138591
STARLINK-31110          
1 58679U 23211N   26167.92734858  .00000435  00000+0  25345-4 0  9996
2 58679  43.0001 244.6733 0001410 272.9473  87.1217 15.27579721137647
STARLINK-31112          
1 58680U 23211P   26167.93505985  .00000824  00000+0  39445-4 0  9994
2 58680  43.0015 244.7320 0000722 297.4094  62.6684 15.27582639138822
STARLINK-31147          
1 58681U 23211Q   26166.51198455  .00000102  00000+0  13209-4 0  9997
2 58681  42.9990 252.9761 0000904 264.8034  95.2714 15.27575387137420
STARLINK-31144          
1 58682U 23211R   26167.90807588  .00001409  00000+0  60714-4 0  9990
2 58682  42.9994 244.5223 0001576 277.6079  82.4594 15.27578181137645
STARLINK-31095          
1 58683U 23211S   26167.50562542  .00001051  00000+0  47694-4 0  9990
2 58683  42.9967 247.5235 0001045 257.1477 102.9258 15.27579339138842
STARLINK-31107          
1 58684U 23211T   26167.90437252 -.00003393  00000+0 -11381-3 0  9990
2 58684  43.0011 245.3556 0001598 272.5853  87.4815 15.27583083137632
STARLINK-31121          
1 58685U 23211U   26167.91194389  .00012469  00000+0  46266-3 0  9995
2 58685  42.9998 244.5517 0000226 242.8209 117.2619 15.27522626137646
STARLINK-31137          
1 58686U 23211V   26166.50942221  .00016548  00000+0  60972-3 0  9998
2 58686  42.9979 252.9503 0001169 254.4659 105.6063 15.27569442137426
STARLINK-31106          
1 58689U 23211Y   26167.94019761  .00006370  00000+0  24059-3 0  9992
2 58689  43.0042 244.7700 0001504 269.8353  90.2326 15.27610347137640
HULIANWANG JISHU SHIYAN*
1 58691U 23212A   26168.89729169 -.00000111  00000+0  31512-4 0  9992
2 58691  50.0018 341.1375 0001203 120.0922 240.0075 13.41457462121347
HULIANWANG JISHU SHIYAN*
1 58692U 23212B   26168.89060967 -.00000107  00000+0  37558-4 0  9998
2 58692  49.9987 341.5262 0001413 111.0836 249.0193 13.41458663121340
HULIANWANG JISHU SHIYAN*
1 58693U 23212C   26168.89388843 -.00000111  00000+0  30588-4 0  9996
2 58693  50.0001 341.6385 0001344  99.5943 260.5086 13.41460391121351
OVZON-3                 
1 58698U 24003A   26168.90866836  .00000046  00000+0  00000+0 0  9992
2 58698   0.0136  58.0046 0000231 151.9847  82.9646  1.00272580  7458
TIANMU-1 15             
1 58700U 24004A   26168.95050551  .00004447  00000+0  17041-3 0  9997
2 58700  97.4667 355.1406 0006616 359.7836   0.3399 15.27030089135890
TIANMU-1 16             
1 58701U 24004B   26168.93987985  .00004523  00000+0  17473-3 0  9990
2 58701  97.4614 354.3660 0005749   5.4575 354.6726 15.26755084135894
TIANMU-1 17             
1 58702U 24004C   26168.92533383  .00004541  00000+0  17542-3 0  9996
2 58702  97.4641 354.8366 0005446  12.0424 348.0944 15.26754084135881
