OBJECT_NAME,OBJECT_ID,EPOCH,MEAN_MOTION,ECCENTRICITY,INCLINATION,RA_OF_ASC_NODE,ARG_OF_PERICENTER,MEAN_ANOMALY,EPHEMERIS_TYPE,CLASSIFICATION_TYPE,NORAD_CAT_ID,ELEMENT_SET_NO,REV_AT_EPOCH,BSTAR,MEAN_MOTION_DOT,MEAN_MOTION_DDOT
TIANMU-1 20,2023-208B,2026-06-17T21:53:37.265568,15.32773638,.00059652,97.4452,285.8515,330.8819,29.2089,0,U,58661,999,13753,.20563421E-3,.6431E-4,0
TIANMU-1 21,2023-208C,2026-06-17T21:35:15.832320,15.35087755,.000592,97.4513,288.5223,320.7968,39.2846,0,U,58662,999,13767,.23095091E-3,.7785E-4,0
TIANMU-1 22,2023-208D,2026-06-17T22:08:12.171840,15.31067020,.0003113,97.4506,285.1610,1.2284,358.8964,0,U,58663,999,13744,.21021069E-3,.6231E-4,0
STARLINK-31113,2023-211B,2026-06-16T22:00:35.025984,15.27576473,.00012299,42.9984,244.5965,271.7191,88.3520,0,U,58668,999,13764,.48041911E-4,.106E-4,0
STARLINK-31128,2023-211C,2026-06-16T22:24:38.009664,15.27582465,.00009393,42.9995,244.7217,272.0422,88.0322,0,U,58669,999,13764,.39094937E-4,.814E-5,0
STARLINK-31083,2023-211D,2026-06-16T21:55:01.421760,15.27583271,.0001184,42.9998,244.5682,276.8861,83.1856,0,U,58670,999,13764,.77640632E-4,.1875E-4,0
STARLINK-30828,2023-211E,2026-06-16T22:39:24.801984,15.27594621,.00021823,43.0043,244.7995,271.9592,88.1009,0,U,58671,999,13764,-.55770868E-4,-.1798E-4,0
STARLINK-31104,2023-211F,2026-06-16T21:05:08.566368,15.52195318,.0020928,42.9903,231.2279,43.7405,316.5110,0,U,58672,999,13907,.95899041E-3,.60259E-3,0
STARLINK-31131,2023-211G,2026-06-16T11:03:33.390432,15.27579318,.00022864,43.0046,236.6786,279.0875,80.9717,0,U,58673,999,13897,.32442116E-4,.63E-5,0
STARLINK-31124,2023-211H,2026-06-17T15:21:51.663456,15.27575158,.00010649,43.0013,240.5631,282.4889,77.5844,0,U,58674,999,13775,-.2993255E-5,-.344E-5,0
STARLINK-31126,2023-211J,2026-06-16T21:43:56.994528,15.27561485,.0000329,43.0065,244.5019,139.5020,220.5857,0,U,58675,999,13764,-.31113602E-4,-.1117E-4,0
STARLINK-31066,2023-211K,2026-06-16T21:34:37.676352,15.27588448,.00012914,43.0039,30.7775,256.8704,103.2004,0,U,58676,999,13720,.7433599E-4,.1784E-4,0
STARLINK-31058,2023-211L,2026-06-16T22:09:49.590432,15.27582387,.00015455,43.0029,244.6462,273.5942,86.4733,0,U,58677,999,13764,.42758265E-4,.915E-5,0
STARLINK-31125,2023-211M,2026-06-15T12:11:42.628992,15.27572595,.00018275,43.0022,252.9420,273.0360,87.0282,0,U,58678,999,13859,.1366715E-5,-.225E-5,0
STARLINK-31110,2023-211N,2026-06-16T22:15:22.917312,15.27579721,.00014107,43.0001,244.6733,272.9473,87.1217,0,U,58679,999,13764,.25345094E-4,.435E-5,0
STARLINK-31112,2023-211P,2026-06-16T22:26:29.171040,15.27582639,.00007229,43.0015,244.7320,297.4094,62.6684,0,U,58680,999,13882,.39444989E-4,.824E-5,0
STARLINK-31147,2023-211Q,2026-06-15T12:17:15.465120,15.27575387,.00009044,42.9990,252.9761,264.8034,95.2714,0,U,58681,999,13742,.13208775E-4,.102E-5,0
STARLINK-31144,2023-211R,2026-06-16T21:47:37.756032,15.27578181,.00015766,42.9994,244.5223,277.6079,82.4594,0,U,58682,999,13764,.60713876E-4,.1409E-4,0
STARLINK-31095,2023-211S,2026-06-16T12:08:06.036288,15.27579339,.00010451,42.9967,247.5235,257.1477,102.9258,0,U,58683,999,13884,.47694187E-4,.1051E-4,0
STARLINK-31107,2023-211T,2026-06-16T21:42:17.785728,15.27583083,.00015985,43.0011,245.3556,272.5853,87.4815,0,U,58684,999,13763,-.11381489E-3,-.3393E-4,0
STARLINK-31121,2023-211U,2026-06-16T21:53:11.952096,15.27522626,.00002264,42.9998,244.5517,242.8209,117.2619,0,U,58685,999,13764,.46265936E-3,.12469E-3,0
STARLINK-31137,2023-211V,2026-06-15T12:13:34.078944,15.27569442,.00011696,42.9979,252.9503,254.4659,105.6063,0,U,58686,999,13742,.60972287E-3,.16548E-3,0
STARLINK-31106,2023-211Y,2026-06-16T22:33:53.073504,15.27610347,.00015043,43.0042,244.7700,269.8353,90.2326,0,U,58689,999,13764,.24058725E-3,.637E-4,0
HULIANWANG JISHU SHIYAN 4A,2023-212A,2026-06-17T21:32:06.002016,13.41457462,.00012034,50.0018,341.1375,120.0922,240.0075,0,U,58691,999,12134,.31512185E-4,-.111E-5,0
HULIANWANG JISHU SHIYAN 4B,2023-212B,2026-06-17T21:22:28.675488,13.41458663,.00014134,49.9987,341.5262,111.0836,249.0193,0,U,58692,999,12134,.3755804E-4,-.107E-5,0
HULIANWANG JISHU SHIYAN 4C,2023-212C,2026-06-17T21:27:11.960352,13.41460391,.00013447,50.0001,341.6385,99.5943,260.5086,0,U,58693,999,12135,.30587841E-4,-.111E-5,0
OVZON-3,2024-003A,2026-06-17T21:48:28.946304,1.00272580,.00002317,0.0136,58.0046,151.9847,82.9646,0,U,58698,999,745,0,.46E-6,0
TIANMU-1 15,2024-004A,2026-06-17T22:48:43.676064,15.27030089,.00066166,97.4667,355.1406,359.7836,0.3399,0,U,58700,999,13589,.17040644E-3,.4447E-4,0
TIANMU-1 16,2024-004B,2026-06-17T22:33:25.619040,15.26755084,.00057498,97.4614,354.3660,5.4575,354.6726,0,U,58701,999,13589,.17472655E-3,.4523E-4,0
TIANMU-1 17,2024-004C,2026-06-17T22:12:28.842912,15.26754084,.00054465,97.4641,354.8366,12.0424,348.0944,0,U,58702,999,13588,.17542493E-3,.4541E-4,0
